LARES-2                 
1 53105U 22080A   26141.40460442 -.00000010  00000+0  00000+0 0  9994
2 53105  70.1682 314.5143 0005380 341.0426  18.9908  6.38965142 89957
GREENCUBE (IO-117)      
1 53109U 22080E   26141.41483570 -.00000003  00000+0  00000+0 0  9998
2 53109  70.1430 307.5592 0008838 295.9766  63.9983  6.42583336 90341
STARLINK-4410           
1 53204U 22084R   26141.45533936  .00043382  00000+0  20110-2 0  9997
2 53204  97.5991 202.1089 0001713  91.4187 268.7243 15.19933448210934
COSMOS 2558             
1 53323U 22089A   26140.52539201  .00065582  00000+0  55178-3 0  9991
2 53323  97.2258 243.5823 0002492 162.3905 197.7444 15.69665221213488
TECMS                   
1 53346U 22090A   26141.65241142  .00002452  00000+0  11205-3 0  9997
2 53346  97.3143 210.5115 0001103 284.6195  75.4919 15.21476170210771
DONGPO 02               
1 53452U 22098J   26141.63306543  .00063739  00000+0  54086-3 0  9997
2 53452  97.5490 270.6381 0001916 100.4332 259.7146 15.69465796210625
DONGPO 01               
1 53453U 22098K   26141.59132902  .00057769  00000+0  52540-3 0  9998
2 53453  97.5556 271.1771 0000774 160.7290 199.4000 15.67787679210580
STARLINK-4400           
1 53468U 22099D   26141.26277410  .00002512  00000+0  17818-3 0  9998
2 53468  97.4640 261.3668 0001156 168.6976 191.4278 15.05638044206899
STARLINK-4621           
1 53676U 22105AE  26141.19908989  .00000070  00000+0  89254-5 0  9993
2 53676  97.4673  21.3130 0002267  74.4293 285.7184 15.05645772204149
SHERPA-LTC2             
1 53754U 22107BG  26141.25376480  .00005782  00000+0  29530-3 0  9998
2 53754  53.2344 334.3214 0397198 150.7168 211.6720 14.69268450198587
CENTISPACE-1 S3         
1 53757U 22108A   26141.59979326 -.00000004  00000+0  37264-4 0  9994
2 53757  53.5312 165.1975 0008200 274.8876  85.1163 14.61223619197640
CENTISPACE-1 S4         
1 53758U 22108B   26141.52803658  .00000036  00000+0  44821-4 0  9993
2 53758  53.5287 163.1377 0007789 260.1960  99.8136 14.61897294197669
BLUEWALKER-3            
1 53807U 22111AL  26141.34327797  .00003680  00000+0  10768-3 0  9997
2 53807  53.2273 159.9607 0007436  89.9111 270.2746 15.37896750206077
YUNHAI-1 03             
1 53877U 22115A   26141.57922444  .00000227  00000+0  99409-4 0  9997
2 53877  98.5534 140.0653 0005833 118.1695 242.0079 14.32698138191702
CENTISPACE-1 S5         
1 54020U 22126A   26141.57389431  .00000437  00000+0  12126-3 0  9996
2 54020  54.9995 319.4540 0013104  21.1788 338.9747 14.62958843193145
CENTISPACE-1 S6         
1 54021U 22126B   26141.55399071  .00000322  00000+0  10048-3 0  9990
2 54021  54.9998 321.2763 0014939  20.1501 340.0079 14.62246973193108
OTB-3-GAZELLE           
1 54023U 22127A   26141.42697038  .00000087  00000+0  39281-4 0  9992
2 54023  98.3940 133.5403 0011814 269.6123  90.3714 14.42663502190504
ASO-S                   
1 54029U 22129A   26141.58622223  .00000118  00000+0  40175-4 0  9990
2 54029  98.2751 147.0479 0014520 169.2866 190.8642 14.52046590191564
HJ-2E                   
1 54035U 22132A   26141.59414808  .00005190  00000+0  22973-3 0  9990
2 54035  97.3806 146.4595 0022658 101.9774 258.4004 15.21862237200370
COSMOS 2561             
1 54109U 22137A   26140.48984669  .00009873  00000+0  17154-3 0  9998
2 54109  96.9203 200.5370 0011750 123.1954 237.0427 15.50931925202050
GONETS-M 23             
1 54150U 22139A   26141.61828617  .00000025  00000+0  11307-3 0  9996
2 54150  82.5089   4.8080 0020570 280.7882  79.0883 12.42889642162345
GONETS-M 24             
1 54151U 22139B   26141.59140485  .00000021  00000+0  77950-4 0  9997
2 54151  82.5005   3.9028 0015895 292.2553  67.6841 12.42890210162343
GONETS-M 25             
1 54152U 22139C   26141.57775993  .00000009  00000+0 -71737-5 0  9999
2 54152  82.5071   4.5832 0019788 290.2259  69.6693 12.42889251162343
SKIF-D                  
1 54153U 22139D   26141.27580434  .00000027  00000+0  00000+0 0  9999
2 54153  89.9547  96.6756 0007376 210.6896 149.3035  5.00436582 62765
MATS                    
1 54227U 22147A   26141.45885258  .00001987  00000+0  14364-3 0  9990
2 54227  97.6833 143.1764 0010515 294.7022  65.3109 15.05169629193744
JILIN-1 GAOFEN 03D54    
1 54254U 22155D   26141.60909969  .00133050  00000+0  56088-3 0  9998
2 54254  97.6109 291.4754 0001110 177.5303 182.5972 15.85097491196071
EOS-6 (OCEANSAT-3)      
1 54361U 22158A   26141.54024863  .00000174  00000+0  59702-4 0  9991
2 54361  98.3520 240.0903 0002092  76.7012 283.4414 14.47023033183984
DONGPO 09               
1 54685U 22167D   26141.63519425  .00007832  00000+0  22823-3 0  9994
2 54685  97.6889 311.4734 0002209 182.6564 177.4668 15.35675455191371
DONGPO 08               
1 54686U 22167E   26141.63497992  .00006797  00000+0  21536-3 0  9998
2 54686  97.6850 308.7757 0006845 257.6396 102.4079 15.33058429191255
2022-167F               
1 54687U 22167F   26141.60739977  .00108139  00000+0  50889-3 0  9994
2 54687  97.6161 326.4427 0003055 161.3304 198.8077 15.82822037192618
