OBJECT_NAME,OBJECT_ID,EPOCH,MEAN_MOTION,ECCENTRICITY,INCLINATION,RA_OF_ASC_NODE,ARG_OF_PERICENTER,MEAN_ANOMALY,EPHEMERIS_TYPE,CLASSIFICATION_TYPE,NORAD_CAT_ID,ELEMENT_SET_NO,REV_AT_EPOCH,BSTAR,MEAN_MOTION_DOT,MEAN_MOTION_DDOT
LARES-2,2022-080A,2026-05-21T09:42:37.821888,6.38965142,.00053807,70.1682,314.5143,341.0426,18.9908,0,U,53105,999,8995,0,-.1E-6,0
GREENCUBE (IO-117),2022-080E,2026-05-21T09:57:21.804480,6.42583336,.0008838,70.1430,307.5592,295.9766,63.9983,0,U,53109,999,9034,0,-.3E-7,0
STARLINK-4410,2022-084R,2026-05-21T10:55:41.320704,15.19933448,.00017137,97.5991,202.1089,91.4187,268.7243,0,U,53204,999,21093,.20109556E-2,.43382E-3,0
COSMOS 2558,2022-089A,2026-05-20T12:36:33.869664,15.69665221,.0002492,97.2258,243.5823,162.3905,197.7444,0,U,53323,999,21348,.55178E-3,.65582E-3,0
TECMS,2022-090A,2026-05-21T15:39:28.346688,15.21476170,.00011038,97.3143,210.5115,284.6195,75.4919,0,U,53346,999,21077,.11205118E-3,.2452E-4,0
DONGPO 02,2022-098J,2026-05-21T15:11:36.853152,15.69465796,.00019168,97.5490,270.6381,100.4332,259.7146,0,U,53452,999,21062,.54086372E-3,.63739E-3,0
DONGPO 01,2022-098K,2026-05-21T14:11:30.827328,15.67787679,.00007742,97.5556,271.1771,160.7290,199.4000,0,U,53453,999,21058,.52540325E-3,.57769E-3,0
STARLINK-4400,2022-099D,2026-05-21T06:18:23.682240,15.05638044,.00011561,97.4640,261.3668,168.6976,191.4278,0,U,53468,999,20689,.17817712E-3,.2512E-4,0
STARLINK-4621,2022-105AE,2026-05-21T04:46:41.366496,15.05645772,.00022679,97.4673,21.3130,74.4293,285.7184,0,U,53676,999,20414,.8925384E-5,.7E-6,0
SHERPA-LTC2,2022-107BG,2026-05-21T06:05:25.278720,14.69268450,.03971989,53.2344,334.3214,150.7168,211.6720,0,U,53754,999,19858,.2952971E-3,.5782E-4,0
CENTISPACE-1 S3,2022-108A,2026-05-21T14:23:42.137664,14.61223619,.00082,53.5312,165.1975,274.8876,85.1163,0,U,53757,999,19764,.37264117E-4,-.4E-7,0
CENTISPACE-1 S4,2022-108B,2026-05-21T12:40:22.360512,14.61897294,.0007789,53.5287,163.1377,260.1960,99.8136,0,U,53758,999,19766,.44821016E-4,.36E-6,0
BLUEWALKER-3,2022-111AL,2026-05-21T08:14:19.216608,15.37896750,.00074364,53.2273,159.9607,89.9111,270.2746,0,U,53807,999,20607,.10768482E-3,.368E-4,0
YUNHAI-1 03,2022-115A,2026-05-21T13:54:04.991616,14.32698138,.00058337,98.5534,140.0653,118.1695,242.0079,0,U,53877,999,19170,.9940944E-4,.227E-5,0
CENTISPACE-1 S5,2022-126A,2026-05-21T13:46:24.468384,14.62958843,.00131041,54.9995,319.4540,21.1788,338.9747,0,U,54020,999,19314,.12126003E-3,.437E-5,0
CENTISPACE-1 S6,2022-126B,2026-05-21T13:17:44.797344,14.62246973,.00149399,54.9998,321.2763,20.1501,340.0079,0,U,54021,999,19310,.10047894E-3,.322E-5,0
OTB-3-GAZELLE,2022-127A,2026-05-21T10:14:50.240832,14.42663502,.0011814,98.3940,133.5403,269.6123,90.3714,0,U,54023,999,19050,.39280606E-4,.87E-6,0
ASO-S,2022-129A,2026-05-21T14:04:09.600672,14.52046590,.00145204,98.2751,147.0479,169.2866,190.8642,0,U,54029,999,19156,.40174613E-4,.118E-5,0
HJ-2E,2022-132A,2026-05-21T14:15:34.394112,15.21862237,.0022658,97.3806,146.4595,101.9774,258.4004,0,U,54035,999,20037,.22972872E-3,.519E-4,0
COSMOS 2561,2022-137A,2026-05-20T11:45:22.754016,15.50931925,.001175,96.9203,200.5370,123.1954,237.0427,0,U,54109,999,20205,.17154E-3,.9873E-4,0
GONETS-M 23,2022-139A,2026-05-21T14:50:19.925088,12.42889642,.00205701,82.5089,4.8080,280.7882,79.0883,0,U,54150,999,16234,.11307271E-3,.25E-6,0
GONETS-M 24,2022-139B,2026-05-21T14:11:37.379040,12.42890210,.00158952,82.5005,3.9028,292.2553,67.6841,0,U,54151,999,16234,.77950401E-4,.21E-6,0
GONETS-M 25,2022-139C,2026-05-21T13:51:58.457952,12.42889251,.00197882,82.5071,4.5832,290.2259,69.6693,0,U,54152,999,16234,-.7173719E-5,.9E-7,0
SKIF-D,2022-139D,2026-05-21T06:37:09.494976,5.00436582,.00073767,89.9547,96.6756,210.6896,149.3035,0,U,54153,999,6276,0,.27E-6,0
MATS,2022-147A,2026-05-21T11:00:44.862912,15.05169629,.00105153,97.6833,143.1764,294.7022,65.3109,0,U,54227,999,19374,.14364133E-3,.1987E-4,0
JILIN-1 GAOFEN 03D54,2022-155D,2026-05-21T14:37:06.213216,15.85097491,.00011107,97.6109,291.4754,177.5303,182.5972,0,U,54254,999,19607,.56088184E-3,.13305E-2,0
EOS-6 (OCEANSAT-3),2022-158A,2026-05-21T12:57:57.481632,14.47023033,.00020922,98.3520,240.0903,76.7012,283.4414,0,U,54361,999,18398,.59701654E-4,.174E-5,0
DONGPO 09,2022-167D,2026-05-21T15:14:40.783200,15.35675455,.00022096,97.6889,311.4734,182.6564,177.4668,0,U,54685,999,19137,.22823366E-3,.7832E-4,0
DONGPO 08,2022-167E,2026-05-21T15:14:22.265088,15.33058429,.00068451,97.6850,308.7757,257.6396,102.4079,0,U,54686,999,19125,.21535983E-3,.6797E-4,0
2022-167F,2022-167F,2026-05-21T14:34:39.340128,15.82822037,.00030552,97.6161,326.4427,161.3304,198.8077,0,U,54687,999,19261,.50889373E-3,.108139E-2,0
